HIMAWARI-8              
1 40267U 14060A   24226.52522395 -.00000265  00000+0  00000+0 0  9991
2 40267   0.0486 256.0638 0000809 254.4571 141.6626  1.00273540 36012
